NORAD_CAT_ID,OBJECT_NAME,OBJECT_TYPE,EPOCH,MEAN_MOTION,ECCENTRICITY,INCLINATION,RA_OF_ASC_NODE,ARG_OF_PERICENTER,MEAN_ANOMALY,BSTAR,MEAN_MOTION_DOT,MEAN_MOTION_DDOT,TLE_LINE0,TLE_LINE1,TLE_LINE2,SEMIMAJOR_AXIS,PERIOD,APOGEE,PERIGEE,DECAYED
55785.0,STARLINK-5818,PAYLOAD,2023-11-02 21:35:14,14.9833601,0.0002744,70.0018,207.4038,270.739,89.3455,-8.4977e-05,-1.107e-05,0.0,0 STARLINK-5818,1 55785U 23028AW  23306.89946946 -.00001107  00000-0 -84977-4 0  9994,2 55785  70.0018 207.4038 0002744 270.7390  89.3455 14.98336010 38535,6950.174,96.107,573.946,570.132,0.0
55785.0,STARLINK-5818,PAYLOAD,2023-11-03 03:59:46,14.98328295,0.0002895,70.0011,206.73,271.5062,88.5766,-0.00015906,-1.99e-05,0.0,0 STARLINK-5818,1 55785U 23028AW  23307.16651603 -.00001990  00000-0 -15906-3 0  9993,2 55785  70.0011 206.7300 0002895 271.5062  88.5766 14.98328295 38569,6950.198,96.107,574.075,570.051,0.0
55785.0,STARLINK-5818,PAYLOAD,2023-11-03 10:24:19,14.9833184,0.0002806,70.0008,206.0573,268.9246,91.1592,-0.0001643,-2.053e-05,0.0,0 STARLINK-5818,1 55785U 23028AW  23307.43355377 -.00002053  00000-0 -16430-3 0  9996,2 55785  70.0008 206.0573 0002806 268.9246  91.1592 14.98331840 38619,6950.187,96.107,574.002,570.102,0.0
55785.0,STARLINK-5818,PAYLOAD,2023-11-03 23:13:23,14.98331099,0.0002989,70.0004,204.7109,266.1581,93.9236,9.4944e-06,2e-07,0.0,0 STARLINK-5818,1 55785U 23028AW  23307.96762922  .00000020  00000-0  94944-5 0  9990,2 55785  70.0004 204.7109 0002989 266.1581  93.9236 14.98331099 38698,6950.189,96.107,574.132,569.977,0.0
55785.0,STARLINK-5818,PAYLOAD,2023-11-04 02:25:38,14.98336944,0.0002801,70.0007,204.3741,268.832,91.2518,7.4403e-05,7.95e-06,0.0,0 STARLINK-5818,1 55785U 23028AW  23308.10114372  .00000795  00000-0  74403-4 0  9993,2 55785  70.0007 204.3741 0002801 268.8320  91.2518 14.98336944 38702,6950.171,96.107,573.983,570.09,0.0
55785.0,STARLINK-5818,PAYLOAD,2023-11-04 20:03:08,14.98324953,0.0002839,70.001,202.5225,267.8797,92.2037,2.3479e-05,1.87e-06,0.0,0 STARLINK-5818,1 55785U 23028AW  23308.83551178  .00000187  00000-0  23479-4 0  9994,2 55785  70.0010 202.5225 0002839 267.8797  92.2037 14.98324953 38817,6950.208,96.107,574.047,570.1,0.0
55785.0,STARLINK-5818,PAYLOAD,2023-11-04 23:15:24,14.98329155,0.0002418,70.0013,202.1856,247.779,112.3112,4.4292e-06,-4e-07,0.0,0 STARLINK-5818,1 55785U 23028AW  23308.96902928 -.00000040  00000-0  44292-5 0  9997,2 55785  70.0013 202.1856 0002418 247.7790 112.3112 14.98329155 38849,6950.196,96.107,573.741,570.38,0.0
55785.0,STARLINK-5818,PAYLOAD,2023-11-05 02:27:39,14.98332539,0.0002758,70.0008,201.8494,264.2093,95.8751,5.6412e-05,5.8e-06,0.0,0 STARLINK-5818,1 55785U 23028AW  23309.10254578  .00000580  00000-0  56412-4 0  9999,2 55785  70.0008 201.8494 0002758 264.2093  95.8751 14.98332539 38859,6950.185,96.107,573.967,570.133,0.0
55785.0,STARLINK-5818,PAYLOAD,2023-11-05 10:28:19,14.98335977,0.0002881,70.0004,201.0078,270.6548,89.4281,0.00014107,1.591e-05,0.0,0 STARLINK-5818,1 55785U 23028AW  23309.43634125  .00001591  00000-0  14107-3 0  9992,2 55785  70.0004 201.0078 0002881 270.6548  89.4281 14.98335977 38911,6950.174,96.107,574.042,570.037,0.0
55785.0,STARLINK-5818,PAYLOAD,2023-11-05 20:05:07,14.98341867,0.0002946,70.0007,199.9975,270.4102,89.6719,0.00013188,1.481e-05,0.0,0 STARLINK-5818,1 55785U 23028AW  23309.83689493  .00001481  00000-0  13188-3 0  9990,2 55785  70.0007 199.9975 0002946 270.4102  89.6719 14.98341867 38969,6950.156,96.106,574.069,569.974,0.0
55785.0,STARLINK-5818,PAYLOAD,2023-11-05 23:17:21,14.98363354,0.0002529,70.001,199.6604,263.6252,96.4619,0.00039288,4.602e-05,0.0,0 STARLINK-5818,1 55785U 23028AW  23309.97039285  .00004602  00000-0  39288-3 0  9990,2 55785  70.0010 199.6604 0002529 263.6252  96.4619 14.98363354 38999,6950.09,96.105,573.712,570.197,0.0
55785.0,STARLINK-5818,PAYLOAD,2023-11-06 02:29:37,14.98369295,0.0002734,70.0008,199.3241,265.1072,94.9775,0.00033438,3.903e-05,0.0,0 STARLINK-5818,1 55785U 23028AW  23310.10390774  .00003903  00000-0  33438-3 0  9994,2 55785  70.0008 199.3241 0002734 265.1072  94.9775 14.98369295 39004,6950.071,96.104,573.837,570.036,0.0
55785.0,STARLINK-5818,PAYLOAD,2023-11-06 10:30:19,14.98343375,0.0002271,70.0018,198.4824,271.6599,88.4299,8.4404e-05,9.15e-06,0.0,0 STARLINK-5818,1 55785U 23028AW  23310.43772718  .00000915  00000-0  84404-4 0  9992,2 55785  70.0018 198.4824 0002271 271.6599  88.4299 14.98343375 39059,6950.152,96.106,573.595,570.438,0.0
55785.0,STARLINK-5818,PAYLOAD,2023-11-06 20:07:10,14.98313297,0.0002863,70.0004,197.4721,271.7353,88.3478,-0.0002509,-3.084e-05,0.0,0 STARLINK-5818,1 55785U 23028AW  23310.83831397 -.00003084  00000-0 -25090-3 0  9992,2 55785  70.0004 197.4721 0002863 271.7353  88.3478 14.98313297 39110,6950.245,96.108,574.099,570.12,0.0
55785.0,STARLINK-5818,PAYLOAD,2023-11-06 21:43:18,14.98313872,0.0002944,70.0005,197.3034,275.459,84.6233,-0.00020152,-2.496e-05,0.0,0 STARLINK-5818,1 55785U 23028AW  23310.90507276 -.00002496  00000-0 -20152-3 0  9996,2 55785  70.0005 197.3034 0002944 275.4590  84.6233 14.98313872 39130,6950.243,96.108,574.154,570.062,0.0
55785.0,STARLINK-5818,PAYLOAD,2023-11-07 02:31:42,14.98315538,0.0002932,70.0012,196.7991,279.7208,80.3619,-0.00013777,-1.736e-05,0.0,0 STARLINK-5818,1 55785U 23028AW  23311.10535160 -.00001736  00000-0 -13777-3 0  9993,2 55785  70.0012 196.7991 0002932 279.7208  80.3619 14.98315538 39157,6950.238,96.108,574.14,570.065,0.0
55785.0,STARLINK-5818,PAYLOAD,2023-11-08 02:33:43,14.98327854,0.0002646,70.0012,194.2757,272.0326,88.0531,-0.00019296,-2.394e-05,0.0,0 STARLINK-5818,1 55785U 23028AW  23312.10674906 -.00002394  00000-0 -19296-3 0  9999,2 55785  70.0012 194.2757 0002646 272.0326  88.0531 14.98327854 39308,6950.2,96.107,573.904,570.226,0.0
55785.0,STARLINK-5818,PAYLOAD,2023-11-08 20:11:11,14.98319282,0.0002943,70.0011,192.4237,279.3858,80.6969,0.00025522,2.953e-05,0.0,0 STARLINK-5818,1 55785U 23028AW  23312.84110211  .00002953  00000-0  25522-3 0  9992,2 55785  70.0011 192.4237 0002943 279.3858  80.6969 14.98319282 39422,6950.226,96.108,574.136,570.046,0.0
55785.0,STARLINK-5818,PAYLOAD,2023-11-09 02:35:42,14.9832919,0.0002808,70.0005,191.7507,268.9642,91.1195,0.0002986,3.472e-05,0.0,0 STARLINK-5818,1 55785U 23028AW  23313.10813507  .00003472  00000-0  29860-3 0  9996,2 55785  70.0005 191.7507 0002808 268.9642  91.1195 14.98329190 39452,6950.195,96.107,574.012,570.109,0.0
55785.0,STARLINK-5818,PAYLOAD,2023-11-09 17:00:56,14.98323736,0.0003441,69.9999,190.2361,279.6438,80.4332,5.4476e-05,5.57e-06,0.0,0 STARLINK-5818,1 55785U 23028AW  23313.70898766  .00000557  00000-0  54476-4 0  9995,2 55785  69.9999 190.2361 0003441 279.6438  80.4332 14.98323736 39543,6950.212,96.107,574.469,569.686,0.0
55785.0,STARLINK-5818,PAYLOAD,2023-11-09 21:49:20,14.98324757,0.0003183,70.0001,189.7307,274.8495,85.2301,7.1237e-05,7.57e-06,0.0,0 STARLINK-5818,1 55785U 23028AW  23313.90926664  .00000757  00000-0  71237-4 0  9992,2 55785  70.0001 189.7307 0003183 274.8495  85.2301 14.98324757 39583,6950.209,96.107,574.286,569.862,0.0
55785.0,STARLINK-5818,PAYLOAD,2023-11-10 09:02:17,14.98323887,0.0002774,70.0002,188.5533,273.8538,86.2304,-4.4326e-06,-1.46e-06,0.0,0 STARLINK-5818,1 55785U 23028AW  23314.37659135 -.00000146  00000-0 -44326-5 0  9994,2 55785  70.0002 188.5533 0002774 273.8538  86.2304 14.98323887 39659,6950.212,96.107,574.005,570.149,0.0
55785.0,STARLINK-5818,PAYLOAD,2023-11-10 20:15:13,14.98332849,0.0002904,70.0003,187.3739,270.2116,89.871,-0.00012218,-1.551e-05,0.0,0 STARLINK-5818,1 55785U 23028AW  23314.84390752 -.00001551  00000-0 -12218-3 0  9997,2 55785  70.0003 187.3739 0002904 270.2116  89.8710 14.98332849 39718,6950.184,96.107,574.067,570.031,0.0
55785.0,STARLINK-5818,PAYLOAD,2023-11-10 21:51:21,14.98333827,0.0002779,70.0003,187.2058,266.4192,93.6649,-8.4739e-05,-1.104e-05,0.0,0 STARLINK-5818,1 55785U 23028AW  23314.91066549 -.00001104  00000-0 -84739-4 0  9991,2 55785  70.0003 187.2058 0002779 266.4192  93.6649 14.98333827 39735,6950.181,96.107,573.978,570.115,0.0
55785.0,STARLINK-5818,PAYLOAD,2023-11-11 09:04:18,14.98353099,0.0002882,69.9999,186.0275,279.3695,80.7138,-0.00062245,-7.516e-05,0.0,0 STARLINK-5818,1 55785U 23028AW  23315.37798694 -.00007516  00000-0 -62245-3 0  9995,2 55785  69.9999 186.0275 0002882 279.3695  80.7138 14.98353099 39801,6950.121,96.106,573.989,569.983,0.0
55785.0,STARLINK-5818,PAYLOAD,2023-11-11 20:17:15,14.9832225,0.0003065,69.9999,184.8498,269.6544,90.4263,-9.4525e-05,-1.22e-05,0.0,0 STARLINK-5818,1 55785U 23028AW  23315.84531548 -.00001220  00000-0 -94525-4 0  9993,2 55785  69.9999 184.8498 0003065 269.6544  90.4263 14.98322250 39861,6950.217,96.107,574.212,569.952,0.0
55785.0,STARLINK-5818,PAYLOAD,2023-11-11 21:53:23,14.98322137,0.0003037,69.9998,184.6814,268.5083,91.5728,-9.7317e-05,-1.254e-05,0.0,0 STARLINK-5818,1 55785U 23028AW  23315.91207591 -.00001254  00000-0 -97317-4 0  9998,2 55785  69.9998 184.6814 0003037 268.5083  91.5728 14.98322137 39889,6950.217,96.108,574.193,569.971,0.0
55785.0,STARLINK-5818,PAYLOAD,2023-11-12 09:06:19,14.98323794,0.0002968,69.9997,183.5033,269.7734,90.3084,6.1122e-06,-2e-07,0.0,0 STARLINK-5818,1 55785U 23028AW  23316.37939433 -.00000020  00000-0  61122-5 0  9991,2 55785  69.9997 183.5033 0002968 269.7734  90.3084 14.98323794 39957,6950.212,96.107,574.14,570.014,0.0
55785.0,STARLINK-5818,PAYLOAD,2023-11-12 18:43:07,14.98327626,0.0003007,69.9997,182.4933,269.8371,90.2444,6.2336e-05,6.51e-06,0.0,0 STARLINK-5818,1 55785U 23028AW  23316.77995137  .00000651  00000-0  62336-4 0  9994,2 55785  69.9997 182.4933 0003007 269.8371  90.2444 14.98327626 40002,6950.2,96.107,574.155,569.975,0.0
55785.0,STARLINK-5818,PAYLOAD,2023-11-12 21:55:23,14.9833065,0.0003009,69.9997,182.1567,269.911,90.1704,5.8809e-05,6.09e-06,0.0,0 STARLINK-5818,1 55785U 23028AW  23316.91346978  .00000609  00000-0  58809-4 0  9996,2 55785  69.9997 182.1567 0003009 269.9110  90.1704 14.98330650 40038,6950.191,96.107,574.147,569.965,0.0
